CIC_OEM_VERS = 2.0
CREATION_DATE = 2025-03-12T09:40:06.755407
ORIGINATOR = ISAE-SUPAERO


META_START
OBJECT_NAME = RED1
OBJECT_ID = RED1
CENTER_NAME = Earth
REF_FRAME = EME2000
TIME_SYSTEM = UTC
START_TIME = 2025-03-12T00:00:00.000
USEABLE_START_TIME = 2025-03-12T00:00:00.000
USEABLE_STOP_TIME = 2025-03-12T23:55:00.000
STOP_TIME = 2025-03-12T23:55:00.000
INTERPOLATION = lagrange
INTERPOLATION_DEGREE = 5
META_STOP



60746 0.0 -5311.5744 -1567.5922 -4284.2723 3.9738756 2.5226242 -5.8708698
60746 420.0 -3165.3561 -386.35232 -6235.410400000001 6.070394 3.0059562 -3.2626804000000003
60746 840.0 -384.34997 872.40236 -6933.050700000001 6.9467847 2.8858771 -0.0020866920000000002
60746 1260.0 2473.4404 1955.9242 -6235.525900000001 6.428420600000001 2.1847993000000003 3.2698337000000004
60746 1680.0 4831.3408 2644.4593 -4276.4682999999995 4.6032194 1.0356256000000001 5.9016691
60746 2100.0 6204.9894 2794.4579 -1445.2623999999998 1.8199806 -0.33584093000000004 7.3472874
60746 2520.0 6304.077700000001 2370.5692999999997 1682.7333 -1.3597689000000002 -1.6486572000000002 7.2858857
60746 2940.0 5100.5969000000005 1456.9296000000002 4461.6170999999995 -4.271212 -2.6257248 5.712564599999999
60746 3360.0 2840.8761 241.59482 6314.0126 -6.2993828999999995 -3.0595508000000002 2.9531771
60746 3780.0 -6.699484900000001 -1023.8275 6857.0027 -7.0217656 -2.8604306999999998 -0.41140248
60746 4200.0 -2853.2633 -2078.2505 5982.1284000000005 -6.296403100000001 -2.0732197 -3.6793615
60746 4620.0 -5114.1152 -2705.8722000000002 3874.8817000000004 -4.2833945 -0.8642869 -6.177733900000001
60746 5040.0 -6329.5713 -2780.2542000000003 972.71359 -1.4067847 0.51491901 -7.4004432
60746 5460.0 -6258.0961 -2289.2447 -2128.3985000000002 1.7378514 1.7815203 -7.1117648
60746 5880.0 -4921.889099999999 -1335.4852 -4798.929099999999 4.5133381 2.6814861999999997 -5.388119700000001
60746 6300.0 -2596.2057999999997 -113.15898 -6502.7627 6.3714767000000005 3.0396004 -2.5877526
60746 6720.0 249.98420000000002 1131.8608000000002 -6899.4854000000005 6.950787 2.7878374 0.73205764
60746 7140.0 3045.4995 2149.3253 -5906.5668 6.1322125 1.9733126 3.9184879
60746 7560.0 5224.559200000001 2731.9947 -3716.6322000000005 4.0615996 0.7514018600000001 6.3327802
60746 7980.0 6337.1741 2757.1843 -767.32912 1.1400023000000001 -0.63555319 7.467757300000001
60746 8400.0 6145.9890000000005 2215.212 2339.4948 -2.0373013 -1.9010796 7.065703900000001
60746 8820.0 4683.8813 1215.2087 4960.8301 -4.8030327 -2.7771226 5.1958906
60746 9240.0 2251.8273 -36.451763 6552.1239000000005 -6.5737211 -3.0781308 2.2488637
60746 9660.0 -646.0471600000001 -1280.7243 6785.4338 -6.9829109 -2.7430031 -1.1556308
60746 10080.0 -3411.1597 -2261.2308 5616.8238 -5.9546533 -1.8450052000000001 -4.3094497
60746 10500.0 -5476.642 -2777.8012000000003 3292.1647000000003 -3.7114632000000003 -0.57304465 -6.5651422
60746 10920.0 -6423.8658 -2727.0739 292.79919 -0.72387978 0.80905251 -7.4684076
60746 11340.0 -6066.6863 -2122.5072 -2766.8124 2.3920812000000002 2.0189632 -6.8503468000000005
60746 11760.0 -4484.9928 -1089.4328 -5267.1918 5.0085431 2.8155065 -4.853523600000001
60746 12180.0 -2002.39 162.55044 -6707.289900000001 6.6112135 3.0445346 -1.8876099
60746 12600.0 881.61499 1381.9013 -6798.9971 6.887861200000001 2.6625802 1.4601482000000001
60746 13020.0 3587.7742000000003 2323.1138 -5519.7943 5.7760737 1.7413154 4.5303534
60746 13440.0 5566.4399 2793.5041 -3119.9293 3.4792645 0.45780462 6.7024629000000004
60746 13860.0 6406.7013 2692.7696 -81.48613800000001 0.44798549000000004 -0.93101889 7.5140978
60746 14280.0 5926.9487 2037.3135 2973.1111 -2.6947161 -2.1362224000000003 6.7745568
60746 14700.0 4220.8162 960.33509 5410.544900000001 -5.2867448999999995 -2.9019205 4.6270188
60746 15120.0 1640.7491000000002 -315.50436 6724.8175 -6.7825314 -3.0665476 1.5222701
60746 15540.0 -1278.6535000000001 -1526.3288 6646.1949 -6.875129200000001 -2.5982745 -1.888079
60746 15960.0 -3935.1696 -2423.0546 5195.5432 -5.5547768 -1.5979157 -4.8966444000000005
60746 16380.0 -5785.273700000001 -2823.1175 2676.5117999999998 -3.1040050000000003 -0.27512362 -6.8877131
60746 16800.0 -6455.4113 -2647.2933 -390.54514 -0.035012302 1.0964909 -7.4632176
60746 17220.0 -5816.4404 -1934.5347 -3378.8340000000003 3.0221827 2.2380451 -6.522427700000001
60746 17640.0 -4004.851 -831.65952 -5684.8358 5.4549739 2.9233631 -4.2719137
60746 18060.0 -1389.3504 438.22368 -6847.1421 6.7871869 3.0205382 -1.1685866
60746 18480.0 1504.6172 1620.1267 -6632.5447 6.7581783 2.5110695 2.1753288
60746 18900.0 4094.993 2475.5406000000003 -5078.9596 5.3629502 1.4909044 5.0991816
60746 19320.0 5853.5302 2828.3133 -2492.3871 2.8618183 0.15774529 7.0064603
60746 19740.0 6412.8464 2601.8237000000004 605.11177 -0.24890071 -1.2191326 7.4853994
60746 20160.0 5649.2753 1838.7133999999999 3576.8540000000003 -3.3250056 -2.3514429 6.4153723000000005
60746 20580.0 3716.3262999999997 695.0558199999999 5805.9800000000005 -5.717199 -2.9985549000000002 4.0121211
60746 21000.0 1014.1053 -592.4959 6830.335900000001 -6.9237196999999995 -3.0248402000000003 0.78124373
60746 21420.0 -1897.8628 -1757.9092 6440.9209 -6.699635000000001 -2.4277577000000004 -2.6008653
60746 21840.0 -4419.8132000000005 -2561.8907999999997 4722.9777 -5.1011116 -1.3346704999999999 -5.434525300000001
60746 22260.0 -6036.889700000001 -2841.2932 2034.7558000000001 -2.4677344 0.026111961000000003 -7.141867599999999
60746 22680.0 -6424.1608 -2541.7862000000005 -1069.748 0.6522101699999999 1.374059 -7.3849920000000004
60746 23100.0 -5510.3832 -1727.3956 -3957.6906000000004 3.6213555000000004 2.4363067000000003 -6.1316168
60746 23520.0 -3486.9375 -565.0456800000001 -6047.2083 5.8479418 3.0037097 -3.6495876
60746 23940.0 -763.9355400000001 710.70557 -6920.665 6.897640000000001 2.9676785 -0.43842138
60746 24360.0 2112.0782000000004 1843.7101000000002 -6401.7577 6.5631835 2.3347708 2.8699434999999998
60746 24780.0 4561.5026 2604.6428 -4588.643099999999 4.8973344 1.2246649 5.618814400000001
60746 25200.0 6082.589 2835.7016000000003 -1840.603 2.2159676 -0.145578 7.2415092
60746 25620.0 6355.4179 2484.9909 1285.2394 -0.94309835 -1.4967199 7.3820524
60746 26040.0 5315.8498 1621.2412 4144.4521 -3.9213688 -2.5444189 5.9922179
60746 26460.0 3175.7132 421.87182 6143.183400000001 -6.0898897 -3.0661853000000003 3.357908
60746 26880.0 378.44291 -864.86799 6867.8357000000005 -6.995867100000001 -2.9535064 0.033615667
60746 27300.0 -2497.2615 -1973.3883 6172.0740000000005 -6.4583786000000005 -2.2331491999999997 -3.2863901
60746 27720.0 -4860.1821 -2676.5602999999996 4204.4585 -4.5987732 -1.0577594 -5.9173389
60746 28140.0 -6229.1861 -2832.2608 1373.9892 -1.8096406 0.32793619 -7.325122400000001
60746 28560.0 -6330.8377 -2411.6286 -1737.4233000000002 1.3305820000000002 1.6390971 -7.2348272
60746 28980.0 -5152.08 -1503.1563 -4497.1878 4.1835035 2.6118168 -5.6823996
60746 29400.0 -2936.9106 -292.21951 -6350.5201 6.183730300000001 3.0558363 -2.9932697
60746 29820.0 -132.75407 977.3352600000001 -6927.1077000000005 6.941800000000001 2.8864926 0.29537369
60746 30240.0 2697.6868 2050.4516000000003 -6108.9892 6.3050549 2.1353112000000003 3.5369118
60746 30660.0 4982.49 2709.0946000000004 -4053.8549 4.3841164 0.94509412 6.0838881
60746 31080.0 6251.298 2815.5013 -1171.2521000000002 1.5484795999999998 -0.4492507 7.405119399999999
60746 31500.0 6235.1446 2343.3065 1951.9178000000002 -1.6271566 -1.76112 7.2052173
60746 31920.0 4930.3159000000005 1386.8679 4670.1593 -4.4776818 -2.7133993999999997 5.5096349
60746 32340.0 2604.6652999999997 143.26826000000003 6418.825 -6.4013413 -3.1041373 2.6711203
60746 32760.0 -259.76262 -1130.1075 6837.0081 -6.9987414 -2.8531099 -0.71312623
60746 33180.0 -3070.9928 -2170.7331 5842.3373 -6.1543935 -2.016091 -3.9381383000000003
60746 33600.0 -5252.2035000000005 -2765.8825 3644.9134 -4.052974 -0.76954804 -6.3410663000000005
60746 34020.0 -6360.5178 -2795.9271000000003 700.22687 -1.1359424 0.62763305 -7.436351800000001
60746 34440.0 -6176.4494 -2257.785 -2387.7529 1.9940149 1.8894501000000001 -7.0147151999999995
60746 34836.0 7999.998500000001 0.0019166197 0.0019166197 -2.394e-06 4.9912458 4.9912458
60746 34926.0 7974.847900000001 448.74062 448.73975 -0.5602189200000001 4.9754583000000006 4.9754283
60746 35016.0 7899.3244 894.64647 894.63917 -1.1171723 4.9283196 4.9281962
60746 35106.0 7773.967900000001 1334.9066 1334.8816000000002 -1.6670588 4.850091099999999 4.849812
60746 35196.0 7599.5702 1766.7450000000001 1766.6856 -2.2064022 4.741270800000001 4.7407755
60746 35286.0 7377.234 2187.4381000000003 2187.3222 -2.7317968 4.6025497 4.6017801
60746 35376.0 7108.3648 2594.3331000000003 2594.1336 -3.2399271 4.4348078 4.433708800000001
60746 35466.0 6794.6613 2984.8646000000003 2984.5494 -3.7275887 4.2391078 4.237628300000001
60746 35556.0 6438.1052 3356.5707 3356.1035 -4.1917086 4.0166879 4.0147813999999995
60746 35646.0 6040.9479 3707.1088 3706.4492000000005 -4.6293641 3.7689540000000004 3.7665793
60746 35736.0 5605.696400000001 4034.2698 4033.3741 -5.037800900000001 3.4974702000000004 3.4945920000000004
60746 35826.0 5135.0976 4335.992200000001 4334.8135999999995 -5.4144503 3.2039489 3.2005384
60746 35916.0 4632.1202 4610.374900000001 4608.8646 -5.7569451 2.8902395000000003 2.8862753
60746 36006.0 4099.9369 4855.6888 4853.7963 -6.0631335 2.5583166 2.553785
60746 36096.0 3541.9033 5070.388 5068.0617999999995 -6.3310925 2.2102674 2.2051626
60746 36186.0 2961.5379 5253.1187 5250.307400000001 -6.559138600000001 1.8482785 1.8426033
60746 36276.0 2362.4990000000003 5402.728 5399.3805999999995 -6.7458377 1.4746226999999998 1.468388
60746 36366.0 1748.563 5518.271 5514.3381 -6.890013 1.0916445000000001 1.08487
60746 36456.0 1123.6001 5599.0164 5594.4505 -6.9907521 0.70174677 0.69446068
60746 36546.0 491.5503 5644.4512 5639.2079 -7.0474125999999995 0.30737614 0.299615
60746 36636.0 -143.60051 5654.2842 5648.3225999999995 -7.0596259 -0.088991782 -0.09718313499999999
